{
  "type": "FeatureCollection",
  "features": [
    {
      "type": "Feature",
      "properties": {
        "norad_id": 25590,
        "name": "COSMOS 2361",
        "group": "musson",
        "lat": -35.242810853033625,
        "lon": 162.88251837880267,
        "alt_km": 974.2388964579422,
        "timestamp": "2025-12-21T03:56:51.106682+00:00",
        "meta_object_name": "COSMOS 2361",
        "meta_object_id": "1998-076A",
        "meta_epoch": "2025-12-20T09:56:59.199648",
        "meta_mean_motion": 13.73218386,
        "meta_eccentricity": 0.00301672,
        "meta_inclination": 82.9341,
        "meta_ra_of_asc_node": 338.4096,
        "meta_arg_of_pericenter": 243.3487,
        "meta_mean_anomaly": 227.1143,
        "meta_ephemeris_type": 0,
        "meta_classification_type": "U",
        "meta_norad_cat_id": 25590,
        "meta_element_set_no": 999,
        "meta_rev_at_epoch": 35216,
        "meta_bstar": 4.0233293e-05,
        "meta_mean_motion_dot": 5.2e-07,
        "meta_mean_motion_ddot": 0,
        "tle_line1": "1 25590U 98076A   25354.41457407  .00000052  00000+0  40233-4 0  9994",
        "tle_line2": "2 25590  82.9341 338.4096 0030167 243.3487 227.1143 13.73218386352160"
      },
      "geometry": {
        "type": "Point",
        "coordinates": [
          162.88251837880267,
          -35.242810853033625
        ]
      }
    },
    {
      "type": "Feature",
      "properties": {
        "norad_id": 26818,
        "name": "COSMOS 2378",
        "group": "musson",
        "lat": -43.175175984481996,
        "lon": -13.2116203971995,
        "alt_km": 1008.5257461192659,
        "timestamp": "2025-12-21T03:56:51.106701+00:00",
        "meta_object_name": "COSMOS 2378",
        "meta_object_id": "2001-023A",
        "meta_epoch": "2025-12-20T13:00:00.679392",
        "meta_mean_motion": 13.74142617,
        "meta_eccentricity": 0.0032887,
        "meta_inclination": 82.927,
        "meta_ra_of_asc_node": 353.9394,
        "meta_arg_of_pericenter": 182.9533,
        "meta_mean_anomaly": 294.0488,
        "meta_ephemeris_type": 0,
        "meta_classification_type": "U",
        "meta_norad_cat_id": 26818,
        "meta_element_set_no": 999,
        "meta_rev_at_epoch": 23030,
        "meta_bstar": 2.7994e-05,
        "meta_mean_motion_dot": 4.2e-07,
        "meta_mean_motion_ddot": 0,
        "tle_line1": "1 26818U 01023A   25354.54167453  .00000042  00000+0  27994-4 0  9995",
        "tle_line2": "2 26818  82.9270 353.9394 0032887 182.9533 294.0488 13.74142617230309"
      },
      "geometry": {
        "type": "Point",
        "coordinates": [
          -13.2116203971995,
          -43.175175984481996
        ]
      }
    },
    {
      "type": "Feature",
      "properties": {
        "norad_id": 27436,
        "name": "COSMOS 2389",
        "group": "musson",
        "lat": -14.040652875860436,
        "lon": 122.52131083891904,
        "alt_km": 1017.5133777900792,
        "timestamp": "2025-12-21T03:56:51.106712+00:00",
        "meta_object_name": "COSMOS 2389",
        "meta_object_id": "2002-026A",
        "meta_epoch": "2025-12-20T20:09:43.164288",
        "meta_mean_motion": 13.75155438,
        "meta_eccentricity": 0.0047316,
        "meta_inclination": 82.9509,
        "meta_ra_of_asc_node": 300.9882,
        "meta_arg_of_pericenter": 38.6814,
        "meta_mean_anomaly": 350.0913,
        "meta_ephemeris_type": 0,
        "meta_classification_type": "U",
        "meta_norad_cat_id": 27436,
        "meta_element_set_no": 999,
        "meta_rev_at_epoch": 18260,
        "meta_bstar": 3.119e-05,
        "meta_mean_motion_dot": 4.5e-07,
        "meta_mean_motion_ddot": 0,
        "tle_line1": "1 27436U 02026A   25354.84008292  .00000045  00000+0  31190-4 0  9990",
        "tle_line2": "2 27436  82.9509 300.9882 0047316  38.6814 350.0913 13.75155438182608"
      },
      "geometry": {
        "type": "Point",
        "coordinates": [
          122.52131083891904,
          -14.040652875860436
        ]
      }
    },
    {
      "type": "Feature",
      "properties": {
        "norad_id": 27818,
        "name": "COSMOS 2398",
        "group": "musson",
        "lat": 61.5818151013326,
        "lon": -80.28670455844232,
        "alt_km": 963.483683083412,
        "timestamp": "2025-12-21T03:56:51.106722+00:00",
        "meta_object_name": "COSMOS 2398",
        "meta_object_id": "2003-023A",
        "meta_epoch": "2025-12-20T19:09:41.681376",
        "meta_mean_motion": 13.72386523,
        "meta_eccentricity": 0.003273,
        "meta_inclination": 82.9484,
        "meta_ra_of_asc_node": 266.76,
        "meta_arg_of_pericenter": 90.3101,
        "meta_mean_anomaly": 324.6671,
        "meta_ephemeris_type": 0,
        "meta_classification_type": "U",
        "meta_norad_cat_id": 27818,
        "meta_element_set_no": 999,
        "meta_rev_at_epoch": 12927,
        "meta_bstar": 5.4714e-05,
        "meta_mean_motion_dot": 6.6e-07,
        "meta_mean_motion_ddot": 0,
        "tle_line1": "1 27818U 03023A   25354.79839909  .00000066  00000+0  54714-4 0  9993",
        "tle_line2": "2 27818  82.9484 266.7600 0032730  90.3101 324.6671 13.72386523129279"
      },
      "geometry": {
        "type": "Point",
        "coordinates": [
          -80.28670455844232,
          61.5818151013326
        ]
      }
    },
    {
      "type": "Feature",
      "properties": {
        "norad_id": 28380,
        "name": "COSMOS 2407",
        "group": "musson",
        "lat": 16.96074640621049,
        "lon": -151.18518742108319,
        "alt_km": 949.0003995618581,
        "timestamp": "2025-12-21T03:56:51.106732+00:00",
        "meta_object_name": "COSMOS 2407",
        "meta_object_id": "2004-028A",
        "meta_epoch": "2025-12-20T15:56:31.835040",
        "meta_mean_motion": 13.76314588,
        "meta_eccentricity": 0.0039963,
        "meta_inclination": 82.9598,
        "meta_ra_of_asc_node": 207.0254,
        "meta_arg_of_pericenter": 33.239,
        "meta_mean_anomaly": 27.0054,
        "meta_ephemeris_type": 0,
        "meta_classification_type": "U",
        "meta_norad_cat_id": 28380,
        "meta_element_set_no": 999,
        "meta_rev_at_epoch": 7532,
        "meta_bstar": 5.6347e-05,
        "meta_mean_motion_dot": 7.1e-07,
        "meta_mean_motion_ddot": 0,
        "tle_line1": "1 28380U 04028A   25354.66425735  .00000071  00000+0  56347-4 0  9998",
        "tle_line2": "2 28380  82.9598 207.0254 0039963  33.2390  27.0054 13.76314588 75325"
      },
      "geometry": {
        "type": "Point",
        "coordinates": [
          -151.18518742108319,
          16.96074640621049
        ]
      }
    },
    {
      "type": "Feature",
      "properties": {
        "norad_id": 28521,
        "name": "COSMOS 2414",
        "group": "musson",
        "lat": -82.67020717601304,
        "lon": 104.0975134412601,
        "alt_km": 970.8834711118761,
        "timestamp": "2025-12-21T03:56:51.106742+00:00",
        "meta_object_name": "COSMOS 2414",
        "meta_object_id": "2005-002A",
        "meta_epoch": "2025-12-20T17:59:33.806112",
        "meta_mean_motion": 13.87903967,
        "meta_eccentricity": 0.004128,
        "meta_inclination": 82.9489,
        "meta_ra_of_asc_node": 178.6028,
        "meta_arg_of_pericenter": 117.4247,
        "meta_mean_anomaly": 243.1124,
        "meta_ephemeris_type": 0,
        "meta_classification_type": "U",
        "meta_norad_cat_id": 28521,
        "meta_element_set_no": 999,
        "meta_rev_at_epoch": 5906,
        "meta_bstar": 3.916e-05,
        "meta_mean_motion_dot": 6.3e-07,
        "meta_mean_motion_ddot": 0,
        "tle_line1": "1 28521U 05002A   25354.74969683  .00000063  00000+0  39160-4 0  9997",
        "tle_line2": "2 28521  82.9489 178.6028 0041280 117.4247 243.1124 13.87903967 59063"
      },
      "geometry": {
        "type": "Point",
        "coordinates": [
          104.0975134412601,
          -82.67020717601304
        ]
      }
    },
    {
      "type": "Feature",
      "properties": {
        "norad_id": 32052,
        "name": "COSMOS 2429",
        "group": "musson",
        "lat": 19.275280863684056,
        "lon": -20.432691479208874,
        "alt_km": 952.791868588979,
        "timestamp": "2025-12-21T03:56:51.106752+00:00",
        "meta_object_name": "COSMOS 2429",
        "meta_object_id": "2007-038A",
        "meta_epoch": "2025-12-20T15:37:49.353024",
        "meta_mean_motion": 13.75150175,
        "meta_eccentricity": 0.003879,
        "meta_inclination": 82.9806,
        "meta_ra_of_asc_node": 337.4761,
        "meta_arg_of_pericenter": 16.1605,
        "meta_mean_anomaly": 344.0778,
        "meta_ephemeris_type": 0,
        "meta_classification_type": "U",
        "meta_norad_cat_id": 32052,
        "meta_element_set_no": 999,
        "meta_rev_at_epoch": 91711,
        "meta_bstar": 3.5983e-05,
        "meta_mean_motion_dot": 5e-07,
        "meta_mean_motion_ddot": 0,
        "tle_line1": "1 32052U 07038A   25354.65126566  .00000050  00000+0  35983-4 0  9992",
        "tle_line2": "2 32052  82.9806 337.4761 0038790  16.1605 344.0778 13.75150175917111"
      },
      "geometry": {
        "type": "Point",
        "coordinates": [
          -20.432691479208874,
          19.275280863684056
        ]
      }
    },
    {
      "type": "Feature",
      "properties": {
        "norad_id": 35635,
        "name": "COSMOS 2454",
        "group": "musson",
        "lat": 22.959388179462945,
        "lon": 165.26099258856445,
        "alt_km": 915.3524935491978,
        "timestamp": "2025-12-21T03:56:51.106761+00:00",
        "meta_object_name": "COSMOS 2454",
        "meta_object_id": "2009-039A",
        "meta_epoch": "2025-12-20T19:45:23.373216",
        "meta_mean_motion": 13.89929603,
        "meta_eccentricity": 0.0020214,
        "meta_inclination": 82.9556,
        "meta_ra_of_asc_node": 162.5171,
        "meta_arg_of_pericenter": 52.0641,
        "meta_mean_anomaly": 64.5232,
        "meta_ephemeris_type": 0,
        "meta_classification_type": "U",
        "meta_norad_cat_id": 35635,
        "meta_element_set_no": 999,
        "meta_rev_at_epoch": 83262,
        "meta_bstar": 3.5232e-05,
        "meta_mean_motion_dot": 5.9e-07,
        "meta_mean_motion_ddot": 0,
        "tle_line1": "1 35635U 09039A   25354.82318719  .00000059  00000+0  35232-4 0  9993",
        "tle_line2": "2 35635  82.9556 162.5171 0020214  52.0641  64.5232 13.89929603832622"
      },
      "geometry": {
        "type": "Point",
        "coordinates": [
          165.26099258856445,
          22.959388179462945
        ]
      }
    },
    {
      "type": "Feature",
      "properties": {
        "norad_id": 36519,
        "name": "COSMOS 2463",
        "group": "musson",
        "lat": -49.267006608682706,
        "lon": -151.2290025146318,
        "alt_km": 979.2763722359487,
        "timestamp": "2025-12-21T03:56:51.106770+00:00",
        "meta_object_name": "COSMOS 2463",
        "meta_object_id": "2010-017A",
        "meta_epoch": "2025-12-20T20:40:15.862944",
        "meta_mean_motion": 13.71649799,
        "meta_eccentricity": 0.0034745,
        "meta_inclination": 82.9604,
        "meta_ra_of_asc_node": 20.7441,
        "meta_arg_of_pericenter": 264.6764,
        "meta_mean_anomaly": 268.9707,
        "meta_ephemeris_type": 0,
        "meta_classification_type": "U",
        "meta_norad_cat_id": 36519,
        "meta_element_set_no": 999,
        "meta_rev_at_epoch": 78348,
        "meta_bstar": 3.9819e-05,
        "meta_mean_motion_dot": 5.1e-07,
        "meta_mean_motion_ddot": 0,
        "tle_line1": "1 36519U 10017A   25354.86129471  .00000051  00000+0  39819-4 0  9999",
        "tle_line2": "2 36519  82.9604  20.7441 0034745 264.6764 268.9707 13.71649799783486"
      },
      "geometry": {
        "type": "Point",
        "coordinates": [
          -151.2290025146318,
          -49.267006608682706
        ]
      }
    }
  ]
}